start=new Date('2022-02-21T00:00:00.000Z').valueOf();
sats=[{"SEMIMAJOR_AXIS":"6925.350","DECAY_DATE":null,"RA_OF_ASC_NODE":"236.0729","RCS_SIZE":"LARGE","ARG_OF_PERICENTER":"72.1728","CENTER_NAME":"EARTH","MEAN_MOTION_DOT":"-0.00000248","SITE":"AFETR","MEAN_MOTION_DDOT":"0.0000000000000","EPOCH":"2022-02-20T19:25:51.229344","EPHEMERIS_TYPE":"0","ECCENTRICITY":"0.00015320","MEAN_ELEMENT_THEORY":"SGP4","PERIAPSIS":"546.154","APOAPSIS":"548.276","COUNTRY_CODE":"US","CLASSIFICATION_TYPE":"U","TIME_SYSTEM":"UTC","OBJECT_NAME":"STARLINK-2535","MEAN_MOTION":"15.06399612","TLE_LINE1":"1 48295U 21036V   22051.80962071 -.00000248  00000-0  22333-5 0  9996","MEAN_ANOMALY":"287.9428","INCLINATION":"53.0526","FILE":"3310556","ELEMENT_SET_NO":"999","BSTAR":"0.00000223330000","REV_AT_EPOCH":"4556","OBJECT_ID":"2021-036V","REF_FRAME":"TEME","TLE_LINE2":"2 48295  53.0526 236.0729 0001532  72.1728 287.9428 15.06399612 45560","NORAD_CAT_ID":"48295","OBJECT_TYPE":"PAYLOAD","LAUNCH_DATE":"2021-04-29","PERIOD":"95.592","GP_ID":"196512246"},{"MEAN_MOTION":"15.06404746","TLE_LINE1":"1 48296U 21036W   22051.80592797  .00000398  00000-0  45639-4 0  9999","INCLINATION":"53.0535","MEAN_ANOMALY":"288.1800","FILE":"3310556","BSTAR":"0.00004563900000","ELEMENT_SET_NO":"999","REV_AT_EPOCH":"4556","OBJECT_ID":"2021-036W","REF_FRAME":"TEME","TLE_LINE2":"2 48296  53.0535 236.0994 0001686  71.9372 288.1800 15.06404746 45569","NORAD_CAT_ID":"48296","OBJECT_TYPE":"PAYLOAD","LAUNCH_DATE":"2021-04-29","PERIOD":"95.592","GP_ID":"196513499","DECAY_DATE":null,"SEMIMAJOR_AXIS":"6925.334","RA_OF_ASC_NODE":"236.0994","RCS_SIZE":"LARGE","ARG_OF_PERICENTER":"71.9372","CENTER_NAME":"EARTH","MEAN_MOTION_DOT":"0.00000398","SITE":"AFETR","MEAN_MOTION_DDOT":"0.0000000000000","EPOCH":"2022-02-20T19:20:32.176608","EPHEMERIS_TYPE":"0","MEAN_ELEMENT_THEORY":"SGP4","ECCENTRICITY":"0.00016860","PERIAPSIS":"546.031","APOAPSIS":"548.367","COUNTRY_CODE":"US","CLASSIFICATION_TYPE":"U","OBJECT_NAME":"STARLINK-2546","TIME_SYSTEM":"UTC"},{"INCLINATION":"53.0532","MEAN_ANOMALY":"307.7645","FILE":"3310556","MEAN_MOTION":"15.06405218","TLE_LINE1":"1 48297U 21036X   22051.86859117  .00000017  00000-0  20088-4 0  9997","REF_FRAME":"TEME","TLE_LINE2":"2 48297  53.0532 235.8161 0002178  52.3541 307.7645 15.06405218 45579","BSTAR":"0.00002008800000","ELEMENT_SET_NO":"999","REV_AT_EPOCH":"4557","OBJECT_ID":"2021-036X","LAUNCH_DATE":"2021-04-29","NORAD_CAT_ID":"48297","OBJECT_TYPE":"PAYLOAD","GP_ID":"196513220","PERIOD":"95.592","RA_OF_ASC_NODE":"235.8161","RCS_SIZE":"LARGE","ARG_OF_PERICENTER":"52.3541","SEMIMAJOR_AXIS":"6925.333","DECAY_DATE":null,"SITE":"AFETR","MEAN_MOTION_DDOT":"0.0000000000000","CENTER_NAME":"EARTH","MEAN_MOTION_DOT":"0.00000017","EPHEMERIS_TYPE":"0","ECCENTRICITY":"0.00021780","MEAN_ELEMENT_THEORY":"SGP4","EPOCH":"2022-02-20T20:50:46.277088","COUNTRY_CODE":"US","CLASSIFICATION_TYPE":"U","TIME_SYSTEM":"UTC","OBJECT_NAME":"STARLINK-2544","PERIAPSIS":"545.689","APOAPSIS":"548.706"},{"INCLINATION":"53.0539","MEAN_ANOMALY":"289.2600","FILE":"3310556","TLE_LINE1":"1 48298U 21036Y   22051.79855978  .00000241  00000-0  35074-4 0  9991","MEAN_MOTION":"15.06402100","REF_FRAME":"TEME","TLE_LINE2":"2 48298  53.0539 236.1330 0001388  70.8539 289.2600 15.06402100 45564","ELEMENT_SET_NO":"999","BSTAR":"0.00003507400000","OBJECT_ID":"2021-036Y","REV_AT_EPOCH":"4556","LAUNCH_DATE":"2021-04-29","NORAD_CAT_ID":"48298","OBJECT_TYPE":"PAYLOAD","GP_ID":"196512496","PERIOD":"95.592","RCS_SIZE":"LARGE","RA_OF_ASC_NODE":"236.1330","ARG_OF_PERICENTER":"70.8539","SEMIMAJOR_AXIS":"6925.342","DECAY_DATE":null,"MEAN_MOTION_DDOT":"0.0000000000000","SITE":"AFETR","CENTER_NAME":"EARTH","MEAN_MOTION_DOT":"0.00000241","EPHEMERIS_TYPE":"0","MEAN_ELEMENT_THEORY":"SGP4","ECCENTRICITY":"0.00013880","EPOCH":"2022-02-20T19:09:55.564992","CLASSIFICATION_TYPE":"U","COUNTRY_CODE":"US","TIME_SYSTEM":"UTC","OBJECT_NAME":"STARLINK-2559","APOAPSIS":"548.168","PERIAPSIS":"546.246"},{"OBJECT_TYPE":"PAYLOAD","NORAD_CAT_ID":"48299","LAUNCH_DATE":"2021-04-29","PERIOD":"95.592","GP_ID":"196512747","MEAN_MOTION":"15.06405860","TLE_LINE1":"1 48299U 21036Z   22051.86122473 -.00000766  00000-0 -32479-4 0  9997","FILE":"3310556","INCLINATION":"53.0520","MEAN_ANOMALY":"300.8429","REV_AT_EPOCH":"4557","OBJECT_ID":"2021-036Z","BSTAR":"-0.00003247900000","ELEMENT_SET_NO":"999","TLE_LINE2":"2 48299  53.0520 235.8567 0001899  59.2747 300.8429 15.06405860 45578","REF_FRAME":"TEME","EPOCH":"2022-02-20T20:40:09.816672","ECCENTRICITY":"0.00018990","MEAN_ELEMENT_THEORY":"SGP4","EPHEMERIS_TYPE":"0","PERIAPSIS":"545.880","APOAPSIS":"548.511","TIME_SYSTEM":"UTC","OBJECT_NAME":"STARLINK-2557","CLASSIFICATION_TYPE":"U","COUNTRY_CODE":"US","SEMIMAJOR_AXIS":"6925.331","DECAY_DATE":null,"ARG_OF_PERICENTER":"59.2747","RA_OF_ASC_NODE":"235.8567","RCS_SIZE":"LARGE","MEAN_MOTION_DOT":"-0.00000766","CENTER_NAME":"EARTH","SITE":"AFETR","MEAN_MOTION_DDOT":"0.0000000000000"},{"FILE":"3310556","MEAN_ANOMALY":"288.7051","INCLINATION":"53.0543","TLE_LINE1":"1 48300U 21036AA  22051.85292185  .00001149  00000-0  95995-4 0  9993","MEAN_MOTION":"15.06398972","TLE_LINE2":"2 48300  53.0543 245.8987 0001418  71.4092 288.7051 15.06398972 45434","REF_FRAME":"TEME","OBJECT_ID":"2021-036AA","REV_AT_EPOCH":"4543","ELEMENT_SET_NO":"999","BSTAR":"0.00009599500000","LAUNCH_DATE":"2021-04-29","OBJECT_TYPE":"PAYLOAD","NORAD_CAT_ID":"48300","GP_ID":"196512999","PERIOD":"95.592","ARG_OF_PERICENTER":"71.4092","RCS_SIZE":"LARGE","RA_OF_ASC_NODE":"245.8987","SEMIMAJOR_AXIS":"6925.352","DECAY_DATE":null,"MEAN_MOTION_DDOT":"0.0000000000000","SITE":"AFETR","MEAN_MOTION_DOT":"0.00001149","CENTER_NAME":"EARTH","ECCENTRICITY":"0.00014180","MEAN_ELEMENT_THEORY":"SGP4","EPHEMERIS_TYPE":"0","EPOCH":"2022-02-20T20:28:12.447840","TIME_SYSTEM":"UTC","OBJECT_NAME":"STARLINK-2538","COUNTRY_CODE":"US","CLASSIFICATION_TYPE":"U","APOAPSIS":"548.199","PERIAPSIS":"546.235"},{"PERIOD":"95.593","GP_ID":"196513721","NORAD_CAT_ID":"48301","OBJECT_TYPE":"PAYLOAD","LAUNCH_DATE":"2021-04-29","ELEMENT_SET_NO":"999","BSTAR":"-0.00000074482000","OBJECT_ID":"2021-036AB","REV_AT_EPOCH":"4542","REF_FRAME":"TEME","TLE_LINE2":"2 48301  53.0556 245.9005 0001344  72.4881 287.6255 15.06389652 45424","TLE_LINE1":"1 48301U 21036AB  22051.84924033 -.00000292  00000-0 -74482-6 0  9997","MEAN_MOTION":"15.06389652","INCLINATION":"53.0556","MEAN_ANOMALY":"287.6255","FILE":"3310556","APOAPSIS":"548.176","PERIAPSIS":"546.315","COUNTRY_CODE":"US","CLASSIFICATION_TYPE":"U","TIME_SYSTEM":"UTC","OBJECT_NAME":"STARLINK-2537","EPOCH":"2022-02-20T20:22:54.364512","EPHEMERIS_TYPE":"0","ECCENTRICITY":"0.00013440","MEAN_ELEMENT_THEORY":"SGP4","CENTER_NAME":"EARTH","MEAN_MOTION_DOT":"-0.00000292","MEAN_MOTION_DDOT":"0.0000000000000","SITE":"AFETR","DECAY_DATE":null,"SEMIMAJOR_AXIS":"6925.380","RCS_SIZE":"LARGE","RA_OF_ASC_NODE":"245.9005","ARG_OF_PERICENTER":"72.4881"},{"FILE":"3310556","MEAN_ANOMALY":"289.4977","INCLINATION":"53.0557","TLE_LINE1":"1 48302U 21036AC  22051.84555405 -.00000192  00000-0  60282-5 0  9991","MEAN_MOTION":"15.06403868","TLE_LINE2":"2 48302  53.0557 245.9282 0001684  70.6194 289.4977 15.06403868 45424","REF_FRAME":"TEME","OBJECT_ID":"2021-036AC","REV_AT_EPOCH":"4542","BSTAR":"0.00000602820000","ELEMENT_SET_NO":"999","LAUNCH_DATE":"2021-04-29","OBJECT_TYPE":"PAYLOAD","NORAD_CAT_ID":"48302","GP_ID":"196511996","PERIOD":"95.592","ARG_OF_PERICENTER":"70.6194","RCS_SIZE":"LARGE","RA_OF_ASC_NODE":"245.9282","SEMIMAJOR_AXIS":"6925.337","DECAY_DATE":null,"MEAN_MOTION_DDOT":"0.0000000000000","SITE":"AFETR","MEAN_MOTION_DOT":"-0.00000192","CENTER_NAME":"EARTH","ECCENTRICITY":"0.00016840","MEAN_ELEMENT_THEORY":"SGP4","EPHEMERIS_TYPE":"0","EPOCH":"2022-02-20T20:17:35.869920","TIME_SYSTEM":"UTC","OBJECT_NAME":"STARLINK-2556","CLASSIFICATION_TYPE":"U","COUNTRY_CODE":"US","APOAPSIS":"548.368","PERIAPSIS":"546.035"},{"COUNTRY_CODE":"US","CLASSIFICATION_TYPE":"U","TIME_SYSTEM":"UTC","OBJECT_NAME":"STARLINK-2530","PERIAPSIS":"546.065","APOAPSIS":"548.401","EPHEMERIS_TYPE":"0","MEAN_ELEMENT_THEORY":"SGP4","ECCENTRICITY":"0.00016860","EPOCH":"2022-02-20T20:12:18.046656","SITE":"AFETR","MEAN_MOTION_DDOT":"0.0000000000000","CENTER_NAME":"EARTH","MEAN_MOTION_DOT":"0.00000015","RA_OF_ASC_NODE":"245.9334","RCS_SIZE":"LARGE","ARG_OF_PERICENTER":"69.1934","DECAY_DATE":null,"SEMIMAJOR_AXIS":"6925.368","GP_ID":"196512748","PERIOD":"95.593","LAUNCH_DATE":"2021-04-29","NORAD_CAT_ID":"48303","OBJECT_TYPE":"PAYLOAD","REF_FRAME":"TEME","TLE_LINE2":"2 48303  53.0561 245.9334 0001686  69.1934 290.9235 15.06393636 45420","BSTAR":"0.00001994400000","ELEMENT_SET_NO":"999","REV_AT_EPOCH":"4542","OBJECT_ID":"2021-036AD","MEAN_ANOMALY":"290.9235","INCLINATION":"53.0561","FILE":"3310556","MEAN_MOTION":"15.06393636","TLE_LINE1":"1 48303U 21036AD  22051.84187554  .00000015  00000-0  19944-4 0  9999"},{"PERIAPSIS":"546.170","APOAPSIS":"548.331","OBJECT_NAME":"STARLINK-2524","TIME_SYSTEM":"UTC","COUNTRY_CODE":"US","CLASSIFICATION_TYPE":"U","EPOCH":"2022-02-20T20:06:59.683392","ECCENTRICITY":"0.00015600","MEAN_ELEMENT_THEORY":"SGP4","EPHEMERIS_TYPE":"0","MEAN_MOTION_DOT":"-0.00000401","CENTER_NAME":"EARTH","SITE":"AFETR","MEAN_MOTION_DDOT":"0.0000000000000","DECAY_DATE":null,"SEMIMAJOR_AXIS":"6925.385","ARG_OF_PERICENTER":"68.3428","RA_OF_ASC_NODE":"245.9559","RCS_SIZE":"LARGE","PERIOD":"95.593","GP_ID":"196513500","OBJECT_TYPE":"PAYLOAD","NORAD_CAT_ID":"48304","LAUNCH_DATE":"2021-04-29","REV_AT_EPOCH":"4542","OBJECT_ID":"2021-036AE","BSTAR":"-0.00000802140000","ELEMENT_SET_NO":"999","TLE_LINE2":"2 48304  53.0549 245.9559 0001560  68.3428 291.7727 15.06388058 45423","REF_FRAME":"TEME","MEAN_MOTION":"15.06388058","TLE_LINE1":"1 48304U 21036AE  22051.83819078 -.00000401  00000-0 -80214-5 0  9992","FILE":"3310556","INCLINATION":"53.0549","MEAN_ANOMALY":"291.7727"}];
